{"type": "FeatureCollection", "features": [ {"type": "Feature", "properties": {"norad_id": 66661, "name": "SNUGLITE-III", "group": "last-30-days", "lat": -11.39836357674709, "lon": -77.61417612380724, "alt_km": 592.8856762027799, "timestamp": "2025-12-19T16:54:42.966736+00:00", "meta": {"OBJECT_NAME": "SNUGLITE-III", "OBJECT_ID": "2025-274M", "EPOCH": "2025-12-19T04:05:47.445792", "MEAN_MOTION": 14.93131354, "ECCENTRICITY": 0.00131617, "INCLINATION": 97.7404, "RA_OF_ASC_NODE": 280.2891, "ARG_OF_PERICENTER": 258.3586, "MEAN_ANOMALY": 101.6156, "EPHEMERIS_TYPE": 0, "CLASSIFICATION_TYPE": "U", "NORAD_CAT_ID": 66661, "ELEMENT_SET_NO": 999, "REV_AT_EPOCH": 336, "BSTAR": 0.00017599835, "MEAN_MOTION_DOT": 1.781e-05, "MEAN_MOTION_DDOT": 0}, "tle": {"line1": "1 66661U 25274M   25353.17068803  .00001781  00000+0  17600-3 0  9999", "line2": "2 66661  97.7404 280.2891 0013161 258.3586 101.6156 14.93131354  3363"}}, "geometry": {"type": "Point", "coordinates": [-77.61417612380724, -11.39836357674709]}}, {"type": "Feature", "properties": {"norad_id": 66662, "name": "2025-274N", "group": "last-30-days", "lat": -6.725192192197288, "lon": -78.26424917922007, "alt_km": 593.0386956684015, "timestamp": "2025-12-19T16:54:42.966746+00:00", "meta": {"OBJECT_NAME": "2025-274N", "OBJECT_ID": "2025-274N", "EPOCH": "2025-12-19T05:41:03.102144", "MEAN_MOTION": 14.93185888, "ECCENTRICITY": 0.00135967, "INCLINATION": 97.7405, "RA_OF_ASC_NODE": 280.3564, "ARG_OF_PERICENTER": 257.7942, "MEAN_ANOMALY": 102.1755, "EPHEMERIS_TYPE": 0, "CLASSIFICATION_TYPE": "U", "NORAD_CAT_ID": 66662, "ELEMENT_SET_NO": 999, "REV_AT_EPOCH": 337, "BSTAR": 0.00017166232, "MEAN_MOTION_DOT": 1.738e-05, "MEAN_MOTION_DDOT": 0}, "tle": {"line1": "1 66662U 25274N   25353.23684146  .00001738  00000+0  17166-3 0  9990", "line2": "2 66662  97.7405 280.3564 0013596 257.7942 102.1755 14.93185888  3377"}}, "geometry": {"type": "Point", "coordinates": [-78.26424917922007, -6.725192192197288]}}, {"type": "Feature", "properties": {"norad_id": 66663, "name": "KSLV-II R/B", "group": "last-30-days", "lat": -18.76295706631767, "lon": -76.36895721894602, "alt_km": 552.56019720107, "timestamp": "2025-12-19T16:54:42.966758+00:00", "meta": {"OBJECT_NAME": "KSLV-II R/B", "OBJECT_ID": "2025-274P", "EPOCH": "2025-12-19T04:09:57.323232", "MEAN_MOTION": 14.97428246, "ECCENTRICITY": 0.00565265, "INCLINATION": 97.7436, "RA_OF_ASC_NODE": 280.4553, "ARG_OF_PERICENTER": 296.8838, "MEAN_ANOMALY": 62.6613, "EPHEMERIS_TYPE": 0, "CLASSIFICATION_TYPE": "U", "NORAD_CAT_ID": 66663, "ELEMENT_SET_NO": 999, "REV_AT_EPOCH": 337, "BSTAR": 0.000782208, "MEAN_MOTION_DOT": 9.347e-05, "MEAN_MOTION_DDOT": 0}, "tle": {"line1": "1 66663U 25274P   25353.17358013  .00009347  00000+0  78221-3 0  9998", "line2": "2 66663  97.7436 280.4553 0056526 296.8838  62.6613 14.97428246  3374"}}, "geometry": {"type": "Point", "coordinates": [-76.36895721894602, -18.76295706631767]}}, {"type": "Feature", "properties": {"norad_id": 66664, "name": "SOYUZ-MS 28", "group": "last-30-days", "lat": 22.48152455843976, "lon": 127.12577313079997, "alt_km": 416.0816694247824, "timestamp": "2025-12-19T16:54:42.966769+00:00", "meta": {"OBJECT_NAME": "SOYUZ-MS 28", "OBJECT_ID": "2025-275A", "EPOCH": "2025-12-19T01:18:34.104096", "MEAN_MOTION": 15.49660414, "ECCENTRICITY": 0.00031768, "INCLINATION": 51.6316, "RA_OF_ASC_NODE": 111.2076, "ARG_OF_PERICENTER": 269.7772, "MEAN_ANOMALY": 90.2853, "EPHEMERIS_TYPE": 0, "CLASSIFICATION_TYPE": "U", "NORAD_CAT_ID": 66664, "ELEMENT_SET_NO": 999, "REV_AT_EPOCH": 128, "BSTAR": 0.00012867135, "MEAN_MOTION_DOT": 6.809e-05, "MEAN_MOTION_DDOT": 0}, "tle": {"line1": "1 66664U 25275A   25353.05456139  .00006809  00000+0  12867-3 0  9999", "line2": "2 66664  51.6316 111.2076 0003176 269.7772  90.2853 15.49660414  1285"}}, "geometry": {"type": "Point", "coordinates": [127.12577313079997, 22.48152455843976]}}, {"type": "Feature", "properties": {"norad_id": 66666, "name": "TRANSPORTER-15 A", "group": "last-30-days", "lat": 35.96711730738623, "lon": 59.94461624513304, "alt_km": 565.9025589646117, "timestamp": "2025-12-19T16:54:42.966779+00:00", "meta": {"OBJECT_NAME": "TRANSPORTER-15 A", "OBJECT_ID": "2025-276A", "EPOCH": "2025-12-19T03:56:42.444960", "MEAN_MOTION": 15.00321578, "ECCENTRICITY": 0.00035945, "INCLINATION": 97.6579, "RA_OF_ASC_NODE": 65.0159, "ARG_OF_PERICENTER": 205.5724, "MEAN_ANOMALY": 154.5322, "EPHEMERIS_TYPE": 0, "CLASSIFICATION_TYPE": "U", "NORAD_CAT_ID": 66666, "ELEMENT_SET_NO": 999, "REV_AT_EPOCH": 305, "BSTAR": 0.00017754819, "MEAN_MOTION_DOT": 2.167e-05, "MEAN_MOTION_DDOT": 0}, "tle": {"line1": "1 66666U 25276A   25353.16438015  .00002167  00000+0  17755-3 0  9991", "line2": "2 66666  97.6579  65.0159 0003594 205.5724 154.5322 15.00321578  3059"}}, "geometry": {"type": "Point", "coordinates": [59.94461624513304, 35.96711730738623]}}, {"type": "Feature", "properties": {"norad_id": 66667, "name": "TRANSPORTER-15 B", "group": "last-30-days", "lat": -66.3450661696122, "lon": -132.00456902276065, "alt_km": 519.1632668735228, "timestamp": "2025-12-19T16:54:42.966789+00:00", "meta": {"OBJECT_NAME": "TRANSPORTER-15 B", "OBJECT_ID": "2025-276B", "EPOCH": "2025-12-19T03:09:53.776224", "MEAN_MOTION": 15.17573189, "ECCENTRICITY": 0.00019043, "INCLINATION": 97.4426, "RA_OF_ASC_NODE": 64.7962, "ARG_OF_PERICENTER": 234.8363, "MEAN_ANOMALY": 125.2692, "EPHEMERIS_TYPE": 0, "CLASSIFICATION_TYPE": "U", "NORAD_CAT_ID": 66667, "ELEMENT_SET_NO": 999, "REV_AT_EPOCH": 309, "BSTAR": 0.00013002238, "MEAN_MOTION_DOT": 2.544e-05, "MEAN_MOTION_DDOT": 0}, "tle": {"line1": "1 66667U 25276B   25353.13187241  .00002544  00000+0  13002-3 0  9991", "line2": "2 66667  97.4426  64.7962 0001904 234.8363 125.2692 15.17573189  3098"}}, "geometry": {"type": "Point", "coordinates": [-132.00456902276065, -66.3450661696122]}}, {"type": "Feature", "properties": {"norad_id": 66668, "name": "TRANSPORTER-15 C", "group": "last-30-days", "lat": 6.570232747719298, "lon": -113.84675419406845, "alt_km": 518.5356465850564, "timestamp": "2025-12-19T16:54:42.966801+00:00", "meta": {"OBJECT_NAME": "TRANSPORTER-15 C", "OBJECT_ID": "2025-276C", "EPOCH": "2025-12-17T18:14:27.284064", "MEAN_MOTION": 15.16976169, "ECCENTRICITY": 0.00078657, "INCLINATION": 97.4291, "RA_OF_ASC_NODE": 63.3861, "ARG_OF_PERICENTER": 286.9005, "MEAN_ANOMALY": 73.1365, "EPHEMERIS_TYPE": 0, "CLASSIFICATION_TYPE": "U", "NORAD_CAT_ID": 66668, "ELEMENT_SET_NO": 999, "REV_AT_EPOCH": 288, "BSTAR": 0.00089647895, "MEAN_MOTION_DOT": 0.00017677, "MEAN_MOTION_DDOT": 0}, "tle": {"line1": "1 66668U 25276C   25351.76003801  .00017677  00000+0  89648-3 0  9990", "line2": "2 66668  97.4291  63.3861 0007865 286.9005  73.1365 15.16976169  2883"}}, "geometry": {"type": "Point", "coordinates": [-113.84675419406845, 6.570232747719298]}}, {"type": "Feature", "properties": {"norad_id": 66669, "name": "TRANSPORTER-15 D", "group": "last-30-days", "lat": -1.7982903037044125, "lon": -114.93524286090887, "alt_km": 518.6937157828625, "timestamp": "2025-12-19T16:54:42.966812+00:00", "meta": {"OBJECT_NAME": "TRANSPORTER-15 D", "OBJECT_ID": "2025-276D", "EPOCH": "2025-12-18T22:42:03.782304", "MEAN_MOTION": 15.17164663, "ECCENTRICITY": 0.00076344, "INCLINATION": 97.4301, "RA_OF_ASC_NODE": 64.5555, "ARG_OF_PERICENTER": 285.8763, "MEAN_ANOMALY": 74.1629, "EPHEMERIS_TYPE": 0, "CLASSIFICATION_TYPE": "U", "NORAD_CAT_ID": 66669, "ELEMENT_SET_NO": 999, "REV_AT_EPOCH": 306, "BSTAR": 0.00096187739, "MEAN_MOTION_DOT": 0.00019077, "MEAN_MOTION_DDOT": 0}, "tle": {"line1": "1 66669U 25276D   25352.94587711  .00019077  00000+0  96188-3 0  9992", "line2": "2 66669  97.4301  64.5555 0007634 285.8763  74.1629 15.17164663  3066"}}, "geometry": {"type": "Point", "coordinates": [-114.93524286090887, -1.7982903037044125]}}, {"type": "Feature", "properties": {"norad_id": 66670, "name": "TRANSPORTER-15 E", "group": "last-30-days", "lat": 0.3565745283861594, "lon": -114.65242317571163, "alt_km": 518.8722386692552, "timestamp": "2025-12-19T16:54:42.966824+00:00", "meta": {"OBJECT_NAME": "TRANSPORTER-15 E", "OBJECT_ID": "2025-276E", "EPOCH": "2025-12-19T00:17:33.614304", "MEAN_MOTION": 15.17087075, "ECCENTRICITY": 0.0007228, "INCLINATION": 97.4315, "RA_OF_ASC_NODE": 64.622, "ARG_OF_PERICENTER": 286.6112, "MEAN_ANOMALY": 73.4327, "EPHEMERIS_TYPE": 0, "CLASSIFICATION_TYPE": "U", "NORAD_CAT_ID": 66670, "ELEMENT_SET_NO": 999, "REV_AT_EPOCH": 307, "BSTAR": 0.00091758231, "MEAN_MOTION_DOT": 0.00018152, "MEAN_MOTION_DDOT": 0}, "tle": {"line1": "1 66670U 25276E   25353.01219461  .00018152  00000+0  91758-3 0  9998", "line2": "2 66670  97.4315  64.6220 0007228 286.6112  73.4327 15.17087075  3078"}}, "geometry": {"type": "Point", "coordinates": [-114.65242317571163, 0.3565745283861594]}}, {"type": "Feature", "properties": {"norad_id": 66671, "name": "TRANSPORTER-15 F", "group": "last-30-days", "lat": -11.907526033263379, "lon": -116.24358032825945, "alt_km": 518.3595609958275, "timestamp": "2025-12-19T16:54:42.966835+00:00", "meta": {"OBJECT_NAME": "TRANSPORTER-15 F", "OBJECT_ID": "2025-276F", "EPOCH": "2025-12-19T03:24:13.995360", "MEAN_MOTION": 15.17033323, "ECCENTRICITY": 0.00050574, "INCLINATION": 97.4437, "RA_OF_ASC_NODE": 64.7835, "ARG_OF_PERICENTER": 268.681, "MEAN_ANOMALY": 91.3844, "EPHEMERIS_TYPE": 0, "CLASSIFICATION_TYPE": "U", "NORAD_CAT_ID": 66671, "ELEMENT_SET_NO": 999, "REV_AT_EPOCH": 309, "BSTAR": 0.00048068487, "MEAN_MOTION_DOT": 9.448e-05, "MEAN_MOTION_DDOT": 0}, "tle": {"line1": "1 66671U 25276F   25353.14182865  .00009448  00000+0  48068-3 0  9994", "line2": "2 66671  97.4437  64.7835 0005057 268.6810  91.3844 15.17033323  3092"}}, "geometry": {"type": "Point", "coordinates": [-116.24358032825945, -11.907526033263379]}}]}